{
  "features": [
    {
      "geometry": {
        "coordinates": [
          [
            [
              -82.497799480186941,
              43.069343161776416
            ],
            [
              -82.485051290360644,
              43.083868414899186
            ],
            [
              -82.484741667133349,
              43.089187486907448
            ],
            [
              -82.502449436778647,
              43.118198401169828
            ],
            [
              -82.503636999702792,
              43.119471010489946
            ],
            [
              -82.505831338701825,
              43.120561607260086
            ],
            [
              -82.505998003136497,
              43.120424941125187
            ],
            [
              -82.505821040415412,
              43.072355380805448
            ],
            [
              -82.502355486474656,
              43.070554250558281
            ],
            [
              -82.497799480186941,
              43.069343161776416
            ]
          ]
        ],
        "type": "Polygon"
      },
      "id": 1,
      "properties": {
        "ADD_DTTM": null,
        "CAUSE": null,
        "CIRCUIT_EST_DTTM": null,
        "CIRCUIT_EST_ENDDTTM": null,
        "CREW_STATUS": null,
        "DEV_ID": null,
        "DEV_NAME": null,
        "DEV_TYPE": null,
        "DEV_TYPE_NAME": null,
        "DISPATCH_DTTM": null,
        "EST_REP_DTTM": null,
        "EST_REP_ENDDTTM": null,
        "EVENT_STATUS": null,
        "JOB_ID": "NE26012400045",
        "NUM_CUST": null,
        "NUM_CUST_RESTORED": null,
        "OBJECTID": 1,
        "OFF_DTTM": null,
        "SERVICE_CENTER": null,
        "SHAPE_Area": 11437254.512849122,
        "SHAPE_Length": 17183.189528027844,
        "STORM_MODE": null,
        "TOAL_CUST_AFFECTED": null,
        "TYCOD": null
      },
      "type": "Feature"
    },
    {
      "geometry": {
        "coordinates": [
          [
            [
              -83.20584005186339,
              42.566304611398635
            ],
            [
              -83.20485674427529,
              42.566348875386424
            ],
            [
              -83.185823858076276,
              42.568661550959206
            ],
            [
              -83.185671186698812,
              42.568821168776289
            ],
            [
              -83.190359688202719,
              42.572557405574187
            ],
            [
              -83.203731868486628,
              42.573125412445172
            ],
            [
              -83.206199562131673,
              42.572766656441132
            ],
            [
              -83.206337882922483,
              42.572662875217034
            ],
            [
              -83.206034357459359,
              42.56643395102158
            ],
            [
              -83.20584005186339,
              42.566304611398635
            ]
          ]
        ],
        "type": "Polygon"
      },
      "id": 2,
      "properties": {
        "ADD_DTTM": null,
        "CAUSE": null,
        "CIRCUIT_EST_DTTM": null,
        "CIRCUIT_EST_ENDDTTM": null,
        "CREW_STATUS": null,
        "DEV_ID": null,
        "DEV_NAME": null,
        "DEV_TYPE": null,
        "DEV_TYPE_NAME": null,
        "DISPATCH_DTTM": null,
        "EST_REP_DTTM": null,
        "EST_REP_ENDDTTM": null,
        "EVENT_STATUS": null,
        "JOB_ID": "NW23121800781",
        "NUM_CUST": null,
        "NUM_CUST_RESTORED": null,
        "OBJECTID": 2,
        "OFF_DTTM": null,
        "SERVICE_CENTER": null,
        "SHAPE_Area": 1699536.4063221014,
        "SHAPE_Length": 5819.8927812916609,
        "STORM_MODE": null,
        "TOAL_CUST_AFFECTED": null,
        "TYCOD": null
      },
      "type": "Feature"
    },
    {
      "geometry": {
        "coordinates": [
          [
            [
              -83.35381629468138,
              42.737361933251648
            ],
            [
              -83.350687236171339,
              42.737588678749418
            ],
            [
              -83.337212663216391,
              42.744142440688982
            ],
            [
              -83.333506022114648,
              42.749149794869922
            ],
            [
              -83.329541338150904,
              42.754850481698924
            ],
            [
              -83.329053381373413,
              42.755830048158764
            ],
            [
              -83.329091215718236,
              42.756970948842742
            ],
            [
              -83.346725421426612,
              42.762058222746973
            ],
            [
              -83.361693682493268,
              42.763520779525109
            ],
            [
              -83.365315103118959,
              42.763462256627911
            ],
            [
              -83.369130158299086,
              42.757529163155446
            ],
            [
              -83.369974545920059,
              42.755802063681529
            ],
            [
              -83.369855000816983,
              42.752277974505283
            ],
            [
              -83.35381629468138,
              42.737361933251648
            ]
          ]
        ],
        "type": "Polygon"
      },
      "id": 3,
      "properties": {
        "ADD_DTTM": null,
        "CAUSE": null,
        "CIRCUIT_EST_DTTM": null,
        "CIRCUIT_EST_ENDDTTM": null,
        "CREW_STATUS": null,
        "DEV_ID": null,
        "DEV_NAME": null,
        "DEV_TYPE": null,
        "DEV_TYPE_NAME": null,
        "DISPATCH_DTTM": null,
        "EST_REP_DTTM": null,
        "EST_REP_ENDDTTM": null,
        "EVENT_STATUS": null,
        "JOB_ID": "NW24041500368",
        "NUM_CUST": null,
        "NUM_CUST_RESTORED": null,
        "OBJECTID": 3,
        "OFF_DTTM": null,
        "SERVICE_CENTER": null,
        "SHAPE_Area": 11825879.609595049,
        "SHAPE_Length": 13196.303838267604,
        "STORM_MODE": null,
        "TOAL_CUST_AFFECTED": null,
        "TYCOD": null
      },
      "type": "Feature"
    },
    {
      "geometry": {
        "coordinates": [
          [
            [
              -83.295852832451899,
              42.530660546015383
            ],
            [
              -83.292322782168711,
              42.530952857667856
            ],
            [
              -83.291256727166527,
              42.532130702127674
            ],
            [
              -83.292226502533182,
              42.543903711768259
            ],
            [
              -83.292375303070116,
              42.544026969179065
            ],
            [
              -83.292578273815295,
              42.543952427972911
            ],
            [
              -83.30060823418998,
              42.531736698753512
            ],
            [
              -83.300536971736804,
              42.531602246293282
            ],
            [
              -83.298728737630043,
              42.530686775748059
            ],
            [
              -83.295852832451899,
              42.530660546015383
            ]
          ]
        ],
        "type": "Polygon"
      },
      "id": 4,
      "properties": {
        "ADD_DTTM": null,
        "CAUSE": null,
        "CIRCUIT_EST_DTTM": null,
        "CIRCUIT_EST_ENDDTTM": null,
        "CREW_STATUS": null,
        "DEV_ID": null,
        "DEV_NAME": null,
        "DEV_TYPE": null,
        "DEV_TYPE_NAME": null,
        "DISPATCH_DTTM": null,
        "EST_REP_DTTM": null,
        "EST_REP_ENDDTTM": null,
        "EVENT_STATUS": null,
        "JOB_ID": "NW24112000993",
        "NUM_CUST": null,
        "NUM_CUST_RESTORED": null,
        "OBJECTID": 4,
        "OFF_DTTM": null,
        "SERVICE_CENTER": null,
        "SHAPE_Area": 1127915.3093171872,
        "SHAPE_Length": 5078.2254687105533,
        "STORM_MODE": null,
        "TOAL_CUST_AFFECTED": null,
        "TYCOD": null
      },
      "type": "Feature"
    },
    {
      "geometry": {
        "coordinates": [
          [
            [
              -83.168506338149953,
              42.656113690849288
            ],
            [
              -83.166852634933335,
              42.65740050696953
            ],
            [
              -83.167401247755436,
              42.658402124201224
            ],
            [
              -83.171533149516051,
              42.663874007251259
            ],
            [
              -83.173988630564807,
              42.663806393353937
            ],
            [
              -83.174630432817864,
              42.661423342444927
            ],
            [
              -83.174562325247976,
              42.660667734722246
            ],
            [
              -83.172973417512765,
              42.657427108204374
            ],
            [
              -83.17099690649539,
              42.656570678290066
            ],
            [
              -83.168506338149953,
              42.656113690849288
            ]
          ]
        ],
        "type": "Polygon"
      },
      "id": 5,
      "properties": {
        "ADD_DTTM": null,
        "CAUSE": null,
        "CIRCUIT_EST_DTTM": null,
        "CIRCUIT_EST_ENDDTTM": null,
        "CREW_STATUS": null,
        "DEV_ID": null,
        "DEV_NAME": null,
        "DEV_TYPE": null,
        "DEV_TYPE_NAME": null,
        "DISPATCH_DTTM": null,
        "EST_REP_DTTM": null,
        "EST_REP_ENDDTTM": null,
        "EVENT_STATUS": null,
        "JOB_ID": "NW25011100339",
        "NUM_CUST": null,
        "NUM_CUST_RESTORED": null,
        "OBJECTID": 5,
        "OFF_DTTM": null,
        "SERVICE_CENTER": null,
        "SHAPE_Area": 615158.35954977339,
        "SHAPE_Length": 3197.4267790838198,
        "STORM_MODE": null,
        "TOAL_CUST_AFFECTED": null,
        "TYCOD": null
      },
      "type": "Feature"
    },
    {
      "geometry": {
        "coordinates": [
          [
            [
              -83.509167669151068,
              42.573049952722144
            ],
            [
              -83.509006521270535,
              42.573133804644598
            ],
            [
              -83.508013908932753,
              42.575084980200344
            ],
            [
              -83.508130095234975,
              42.575257987076377
            ],
            [
              -83.508329102613118,
              42.575219167024642
            ],
            [
              -83.509335234595937,
              42.574261568771348
            ],
            [
              -83.509362143630284,
              42.573172466565204
            ],
            [
              -83.509167669151068,
              42.573049952722144
            ]
          ]
        ],
        "type": "Polygon"
      },
      "id": 6,
      "properties": {
        "ADD_DTTM": null,
        "CAUSE": null,
        "CIRCUIT_EST_DTTM": null,
        "CIRCUIT_EST_ENDDTTM": null,
        "CREW_STATUS": null,
        "DEV_ID": null,
        "DEV_NAME": null,
        "DEV_TYPE": null,
        "DEV_TYPE_NAME": null,
        "DISPATCH_DTTM": null,
        "EST_REP_DTTM": null,
        "EST_REP_ENDDTTM": null,
        "EVENT_STATUS": null,
        "JOB_ID": "NW25020200063",
        "NUM_CUST": null,
        "NUM_CUST_RESTORED": null,
        "OBJECTID": 6,
        "OFF_DTTM": null,
        "SERVICE_CENTER": null,
        "SHAPE_Area": 22389.228499353907,
        "SHAPE_Length": 765.21015830401745,
        "STORM_MODE": null,
        "TOAL_CUST_AFFECTED": null,
        "TYCOD": null
      },
      "type": "Feature"
    },
    {
      "geometry": {
        "coordinates": [
          [
            [
              -83.387324875015494,
              42.661426051545121
            ],
            [
              -83.352237074378209,
              42.692417149186191
            ],
            [
              -83.352475996599381,
              42.693449215026718
            ],
            [
              -83.35531209203738,
              42.697550514202575
            ],
            [
              -83.357069302734317,
              42.698049620532309
            ],
            [
              -83.35896415599403,
              42.698372263564771
            ],
            [
              -83.36157750247925,
              42.698440480912645
            ],
            [
              -83.408600672120954,
              42.697432024030462
            ],
            [
              -83.387508150198087,
              42.661513974696163
            ],
            [
              -83.387324875015494,
              42.661426051545121
            ]
          ]
        ],
        "type": "Polygon"
      },
      "id": 7,
      "properties": {
        "ADD_DTTM": null,
        "CAUSE": null,
        "CIRCUIT_EST_DTTM": null,
        "CIRCUIT_EST_ENDDTTM": null,
        "CREW_STATUS": null,
        "DEV_ID": null,
        "DEV_NAME": null,
        "DEV_TYPE": null,
        "DEV_TYPE_NAME": null,
        "DISPATCH_DTTM": null,
        "EST_REP_DTTM": null,
        "EST_REP_ENDDTTM": null,
        "EVENT_STATUS": null,
        "JOB_ID": "NW25033000323",
        "NUM_CUST": null,
        "NUM_CUST_RESTORED": null,
        "OBJECTID": 7,
        "OFF_DTTM": null,
        "SERVICE_CENTER": null,
        "SHAPE_Area": 18995534.815653563,
        "SHAPE_Length": 18863.346908800348,
        "STORM_MODE": null,
        "TOAL_CUST_AFFECTED": null,
        "TYCOD": null
      },
      "type": "Feature"
    },
    {
      "geometry": {
        "coordinates": [
          [
            [
              -83.073192871259394,
              42.327046869061974
            ],
            [
              -83.073018743621347,
              42.32716473988841
            ],
            [
              -83.072454680674667,
              42.33112995701039
            ],
            [
              -83.081091822231372,
              42.331907719062805
            ],
            [
              -83.080913854295474,
              42.330955874661804
            ],
            [
              -83.073192871259394,
              42.327046869061974
            ]
          ]
        ],
        "type": "Polygon"
      },
      "id": 8,
      "properties": {
        "ADD_DTTM": null,
        "CAUSE": null,
        "CIRCUIT_EST_DTTM": null,
        "CIRCUIT_EST_ENDDTTM": null,
        "CREW_STATUS": null,
        "DEV_ID": null,
        "DEV_NAME": null,
        "DEV_TYPE": null,
        "DEV_TYPE_NAME": null,
        "DISPATCH_DTTM": null,
        "EST_REP_DTTM": null,
        "EST_REP_ENDDTTM": null,
        "EVENT_STATUS": null,
        "JOB_ID": "SE23071601620",
        "NUM_CUST": null,
        "NUM_CUST_RESTORED": null,
        "OBJECTID": 8,
        "OFF_DTTM": null,
        "SERVICE_CENTER": null,
        "SHAPE_Area": 361374.66465677141,
        "SHAPE_Length": 2781.6479035324392,
        "STORM_MODE": null,
        "TOAL_CUST_AFFECTED": null,
        "TYCOD": null
      },
      "type": "Feature"
    },
    {
      "geometry": {
        "coordinates": [
          [
            [
              -83.483264609592922,
              42.172296783632333
            ],
            [
              -83.465223491315342,
              42.175126626829126
            ],
            [
              -83.465081274531144,
              42.175290008705737
            ],
            [
              -83.480553117671349,
              42.182964233252463
            ],
            [
              -83.483976419352686,
              42.18219026357108
            ],
            [
              -83.484099799363705,
              42.182085446758599
            ],
            [
              -83.483458133654565,
              42.172424298005353
            ],
            [
              -83.483264609592922,
              42.172296783632333
            ]
          ]
        ],
        "type": "Polygon"
      },
      "id": 9,
      "properties": {
        "ADD_DTTM": null,
        "CAUSE": null,
        "CIRCUIT_EST_DTTM": null,
        "CIRCUIT_EST_ENDDTTM": null,
        "CREW_STATUS": null,
        "DEV_ID": null,
        "DEV_NAME": null,
        "DEV_TYPE": null,
        "DEV_TYPE_NAME": null,
        "DISPATCH_DTTM": null,
        "EST_REP_DTTM": null,
        "EST_REP_ENDDTTM": null,
        "EVENT_STATUS": null,
        "JOB_ID": "SW24091400004",
        "NUM_CUST": null,
        "NUM_CUST_RESTORED": null,
        "OBJECTID": 9,
        "OFF_DTTM": null,
        "SERVICE_CENTER": null,
        "SHAPE_Area": 1888748.5433714218,
        "SHAPE_Length": 6055.6887320785636,
        "STORM_MODE": null,
        "TOAL_CUST_AFFECTED": null,
        "TYCOD": null
      },
      "type": "Feature"
    },
    {
      "geometry": {
        "coordinates": [
          [
            [
              -83.26738533338758,
              42.235819712028629
            ],
            [
              -83.26663372736239,
              42.235899575037379
            ],
            [
              -83.266545252290058,
              42.236098987029223
            ],
            [
              -83.2667124269678,
              42.236179430312397
            ],
            [
              -83.26747428097373,
              42.236099347511143
            ],
            [
              -83.267574392822269,
              42.235925462636878
            ],
            [
              -83.26738533338758,
              42.235819712028629
            ]
          ]
        ],
        "type": "Polygon"
      },
      "id": 10,
      "properties": {
        "ADD_DTTM": null,
        "CAUSE": null,
        "CIRCUIT_EST_DTTM": null,
        "CIRCUIT_EST_ENDDTTM": null,
        "CREW_STATUS": null,
        "DEV_ID": null,
        "DEV_NAME": null,
        "DEV_TYPE": null,
        "DEV_TYPE_NAME": null,
        "DISPATCH_DTTM": null,
        "EST_REP_DTTM": null,
        "EST_REP_ENDDTTM": null,
        "EVENT_STATUS": null,
        "JOB_ID": "SW25033007356",
        "NUM_CUST": null,
        "NUM_CUST_RESTORED": null,
        "OBJECTID": 10,
        "OFF_DTTM": null,
        "SERVICE_CENTER": null,
        "SHAPE_Area": 4357.6157229349828,
        "SHAPE_Length": 278.73628128908837,
        "STORM_MODE": null,
        "TOAL_CUST_AFFECTED": null,
        "TYCOD": null
      },
      "type": "Feature"
    },
    {
      "geometry": {
        "coordinates": [
          [
            [
              -82.973786942242441,
              42.475823511536134
            ],
            [
              -82.973578290551401,
              42.47543289002752
            ],
            [
              -82.973033312312921,
              42.475265605383399
            ],
            [
              -82.972505637423453,
              42.475420059403454
            ],
            [
              -82.972279652739005,
              42.475823490334093
            ],
            [
              -82.97248829814184,
              42.476214114042577
            ],
            [
              -82.973033283566835,
              42.476381401451683
            ],
            [
              -82.973560964744522,
              42.476226944503836
            ],
            [
              -82.973786942242441,
              42.475823511536134
            ]
          ]
        ],
        "type": "Polygon"
      },
      "id": 11,
      "properties": {
        "ADD_DTTM": null,
        "CAUSE": null,
        "CIRCUIT_EST_DTTM": null,
        "CIRCUIT_EST_ENDDTTM": null,
        "CREW_STATUS": null,
        "DEV_ID": null,
        "DEV_NAME": null,
        "DEV_TYPE": null,
        "DEV_TYPE_NAME": null,
        "DISPATCH_DTTM": null,
        "EST_REP_DTTM": null,
        "EST_REP_ENDDTTM": null,
        "EVENT_STATUS": null,
        "JOB_ID": "NE24010100323",
        "NUM_CUST": null,
        "NUM_CUST_RESTORED": null,
        "OBJECTID": 11,
        "OFF_DTTM": null,
        "SERVICE_CENTER": null,
        "SHAPE_Area": 20109.013166423047,
        "SHAPE_Length": 516.31360703614257,
        "STORM_MODE": null,
        "TOAL_CUST_AFFECTED": null,
        "TYCOD": null
      },
      "type": "Feature"
    },
    {
      "geometry": {
        "coordinates": [
          [
            [
              -82.654227785561957,
              42.770825340058217
            ],
            [
              -82.654020155255381,
              42.770434146279669
            ],
            [
              -82.653473450454939,
              42.770265336466089
            ],
            [
              -82.652942474256804,
              42.770418302677484
            ],
            [
              -82.65271333918065,
              42.770821084087444
            ],
            [
              -82.652920962300698,
              42.771212280038085
            ],
            [
              -82.653467673389358,
              42.771381092546186
            ],
            [
              -82.653998656774007,
              42.771228124096616
            ],
            [
              -82.654227785561957,
              42.770825340058217
            ]
          ]
        ],
        "type": "Polygon"
      },
      "id": 12,
      "properties": {
        "ADD_DTTM": null,
        "CAUSE": null,
        "CIRCUIT_EST_DTTM": null,
        "CIRCUIT_EST_ENDDTTM": null,
        "CREW_STATUS": null,
        "DEV_ID": null,
        "DEV_NAME": null,
        "DEV_TYPE": null,
        "DEV_TYPE_NAME": null,
        "DISPATCH_DTTM": null,
        "EST_REP_DTTM": null,
        "EST_REP_ENDDTTM": null,
        "EVENT_STATUS": null,
        "JOB_ID": "NE26040301215",
        "NUM_CUST": null,
        "NUM_CUST_RESTORED": null,
        "OBJECTID": 12,
        "OFF_DTTM": null,
        "SERVICE_CENTER": null,
        "SHAPE_Area": 20300.034158545102,
        "SHAPE_Length": 518.76009066560221,
        "STORM_MODE": null,
        "TOAL_CUST_AFFECTED": null,
        "TYCOD": null
      },
      "type": "Feature"
    },
    {
      "geometry": {
        "coordinates": [
          [
            [
              -82.705724222162132,
              43.687237503870357
            ],
            [
              -82.705513148613079,
              43.686846504230971
            ],
            [
              -82.704958102056906,
              43.686677984136722
            ],
            [
              -82.704419292549488,
              43.686831149754347
            ],
            [
              -82.704187059183923,
              43.687233931121611
            ],
            [
              -82.704398125546447,
              43.687624932782676
            ],
            [
              -82.704953179289149,
              43.687793456062806
            ],
            [
              -82.705491995983081,
              43.687640287705648
            ],
            [
              -82.705724222162132,
              43.687237503870357
            ]
          ]
        ],
        "type": "Polygon"
      },
      "id": 13,
      "properties": {
        "ADD_DTTM": 1791654315000,
        "CAUSE": "Equipment problem",
        "CIRCUIT_EST_DTTM": null,
        "CIRCUIT_EST_ENDDTTM": null,
        "CREW_STATUS": null,
        "DEV_ID": null,
        "DEV_NAME": null,
        "DEV_TYPE": null,
        "DEV_TYPE_NAME": "Single Customer",
        "DISPATCH_DTTM": null,
        "EST_REP_DTTM": 1791657900000,
        "EST_REP_ENDDTTM": 1791657900000,
        "EVENT_STATUS": "In Progres",
        "JOB_ID": "NE26101000175",
        "NUM_CUST": 1,
        "NUM_CUST_RESTORED": 0,
        "OBJECTID": 13,
        "OFF_DTTM": 1791641569000,
        "SERVICE_CENTER": "NAE",
        "SHAPE_Area": 20911.254608212585,
        "SHAPE_Length": 526.51185811422783,
        "STORM_MODE": "NORMAL",
        "TOAL_CUST_AFFECTED": 1,
        "TYCOD": "OUTAGE"
      },
      "type": "Feature"
    },
    {
      "geometry": {
        "coordinates": [
          [
            [
              -82.871251448963932,
              43.059652081750166
            ],
            [
              -82.871041473156168,
              43.059261304684576
            ],
            [
              -82.870491618862332,
              43.059093542147885
            ],
            [
              -82.869958697811612,
              43.059247508159999
            ],
            [
              -82.869729906790198,
              43.059650701450302
            ],
            [
              -82.869939876309772,
              43.060041481284863
            ],
            [
              -82.870489736891813,
              43.060209246478642
            ],
            [
              -82.871022664230765,
              43.060055277630802
            ],
            [
              -82.871251448963932,
              43.059652081750166
            ]
          ]
        ],
        "type": "Polygon"
      },
      "id": 14,
      "properties": {
        "ADD_DTTM": 1791654315000,
        "CAUSE": "Determined upon crew arrival",
        "CIRCUIT_EST_DTTM": null,
        "CIRCUIT_EST_ENDDTTM": null,
        "CREW_STATUS": null,
        "DEV_ID": null,
        "DEV_NAME": null,
        "DEV_TYPE": null,
        "DEV_TYPE_NAME": "Single Customer",
        "DISPATCH_DTTM": null,
        "EST_REP_DTTM": 1791665700000,
        "EST_REP_ENDDTTM": 1791665700000,
        "EVENT_STATUS": "In Progres",
        "JOB_ID": "NE26101000340",
        "NUM_CUST": 1,
        "NUM_CUST_RESTORED": 0,
        "OBJECTID": 14,
        "OFF_DTTM": 1791649334000,
        "SERVICE_CENTER": "MAR",
        "SHAPE_Area": 20489.730385818893,
        "SHAPE_Length": 521.17823603649094,
        "STORM_MODE": "NORMAL",
        "TOAL_CUST_AFFECTED": 1,
        "TYCOD": "OUTAGE"
      },
      "type": "Feature"
    },
    {
      "geometry": {
        "coordinates": [
          [
            [
              -82.528508485192617,
              42.947990135296116
            ],
            [
              -82.528301055210363,
              42.94759872490387
            ],
            [
              -82.527753127802825,
              42.947429319058429
            ],
            [
              -82.527220320838126,
              42.947581696426361
            ],
            [
              -82.526989709829977,
              42.947984212814426
            ],
            [
              -82.527197132625702,
              42.948375625358203
            ],
            [
              -82.527745066321458,
              42.948545034517117
            ],
            [
              -82.528277881370968,
              42.948392654273633
            ],
            [
              -82.528508485192617,
              42.947990135296116
            ]
          ]
        ],
        "type": "Polygon"
      },
      "id": 15,
      "properties": {
        "ADD_DTTM": 1791654315000,
        "CAUSE": "Determined upon crew arrival",
        "CIRCUIT_EST_DTTM": null,
        "CIRCUIT_EST_ENDDTTM": null,
        "CREW_STATUS": null,
        "DEV_ID": null,
        "DEV_NAME": null,
        "DEV_TYPE": null,
        "DEV_TYPE_NAME": "Single Customer",
        "DISPATCH_DTTM": null,
        "EST_REP_DTTM": 1791667200000,
        "EST_REP_ENDDTTM": 1791667200000,
        "EVENT_STATUS": "In Progres",
        "JOB_ID": "NE26101000361",
        "NUM_CUST": 1,
        "NUM_CUST_RESTORED": 0,
        "OBJECTID": 15,
        "OFF_DTTM": 1791649528000,
        "SERVICE_CENTER": "MAR",
        "SHAPE_Area": 20416.081370989679,
        "SHAPE_Length": 520.2407314215352,
        "STORM_MODE": "NORMAL",
        "TOAL_CUST_AFFECTED": 1,
        "TYCOD": "OUTAGE"
      },
      "type": "Feature"
    },
    {
      "geometry": {
        "coordinates": [
          [
            [
              -83.019872277914047,
              42.528479337357631
            ],
            [
              -83.019663159997364,
              42.528088801728401
            ],
            [
              -83.019117596955638,
              42.527921738673591
            ],
            [
              -83.018589590587837,
              42.528076406253867
            ],
            [
              -83.01836371370122,
              42.528479927204728
            ],
            [
              -83.018572824431374,
              42.528870465022628
            ],
            [
              -83.019118394659628,
              42.529037530836071
            ],
            [
              -83.019646407315633,
              42.528882861001591
            ],
            [
              -83.019872277914047,
              42.528479337357631
            ]
          ]
        ],
        "type": "Polygon"
      },
      "id": 16,
      "properties": {
        "ADD_DTTM": 1791654315000,
        "CAUSE": "Determined upon crew arrival",
        "CIRCUIT_EST_DTTM": null,
        "CIRCUIT_EST_ENDDTTM": null,
        "CREW_STATUS": null,
        "DEV_ID": null,
        "DEV_NAME": null,
        "DEV_TYPE": null,
        "DEV_TYPE_NAME": "Single Customer",
        "DISPATCH_DTTM": null,
        "EST_REP_DTTM": 1791667800000,
        "EST_REP_ENDDTTM": 1791667800000,
        "EVENT_STATUS": "In Progres",
        "JOB_ID": "NE26101000368",
        "NUM_CUST": 1,
        "NUM_CUST_RESTORED": 0,
        "OBJECTID": 16,
        "OFF_DTTM": 1791651674000,
        "SERVICE_CENTER": "MTC",
        "SHAPE_Area": 20142.911042234464,
        "SHAPE_Length": 516.74859587862136,
        "STORM_MODE": "NORMAL",
        "TOAL_CUST_AFFECTED": 1,
        "TYCOD": "OUTAGE"
      },
      "type": "Feature"
    },
    {
      "geometry": {
        "coordinates": [
          [
            [
              -82.936344764144991,
              42.462467873703126
            ],
            [
              -82.93613639182999,
              42.462077183420227
            ],
            [
              -82.935591630085497,
              42.461909719271631
            ],
            [
              -82.93506397585729,
              42.462064000147834
            ],
            [
              -82.934837797136723,
              42.462467356130617
            ],
            [
              -82.93504616316352,
              42.46285804861769
            ],
            [
              -82.935590931196217,
              42.46302551553142
            ],
            [
              -82.936118592610953,
              42.462871233048311
            ],
            [
              -82.936344764144991,
              42.462467873703126
            ]
          ]
        ],
        "type": "Polygon"
      },
      "id": 17,
      "properties": {
        "ADD_DTTM": 1791654315000,
        "CAUSE": "Determined upon crew arrival",
        "CIRCUIT_EST_DTTM": null,
        "CIRCUIT_EST_ENDDTTM": null,
        "CREW_STATUS": null,
        "DEV_ID": null,
        "DEV_NAME": null,
        "DEV_TYPE": null,
        "DEV_TYPE_NAME": "Single Customer",
        "DISPATCH_DTTM": null,
        "EST_REP_DTTM": 1791669600000,
        "EST_REP_ENDDTTM": 1791669600000,
        "EVENT_STATUS": "In Progres",
        "JOB_ID": "NE26101000390",
        "NUM_CUST": 1,
        "NUM_CUST_RESTORED": 0,
        "OBJECTID": 17,
        "OFF_DTTM": 1791653533000,
        "SERVICE_CENTER": "MTC",
        "SHAPE_Area": 20100.430319197483,
        "SHAPE_Length": 516.20341102936163,
        "STORM_MODE": "NORMAL",
        "TOAL_CUST_AFFECTED": 1,
        "TYCOD": "OUTAGE"
      },
      "type": "Feature"
    },
    {
      "geometry": {
        "coordinates": [
          [
            [
              -83.533415624120721,
              42.664801480155937
            ],
            [
              -83.533202824009692,
              42.664411900311094
            ],
            [
              -83.532654693582884,
              42.664247302917076
            ],
            [
              -83.532126816572486,
              42.664404348090635
            ],
            [
              -83.531903782853732,
              42.664808875775606
            ],
            [
              -83.532116576676543,
              42.665198458417194
            ],
            [
              -83.532664714289879,
              42.665363057916814
            ],
            [
              -83.533192597588481,
              42.665206010541176
            ],
            [
              -83.533415624120721,
              42.664801480155937
            ]
          ]
        ],
        "type": "Polygon"
      },
      "id": 18,
      "properties": {
        "ADD_DTTM": null,
        "CAUSE": null,
        "CIRCUIT_EST_DTTM": null,
        "CIRCUIT_EST_ENDDTTM": null,
        "CREW_STATUS": null,
        "DEV_ID": null,
        "DEV_NAME": null,
        "DEV_TYPE": null,
        "DEV_TYPE_NAME": null,
        "DISPATCH_DTTM": null,
        "EST_REP_DTTM": null,
        "EST_REP_ENDDTTM": null,
        "EVENT_STATUS": null,
        "JOB_ID": "NW24120601627",
        "NUM_CUST": null,
        "NUM_CUST_RESTORED": null,
        "OBJECTID": 18,
        "OFF_DTTM": null,
        "SERVICE_CENTER": null,
        "SHAPE_Area": 20231.080468320913,
        "SHAPE_Length": 517.87830235587421,
        "STORM_MODE": null,
        "TOAL_CUST_AFFECTED": null,
        "TYCOD": null
      },
      "type": "Feature"
    },
    {
      "geometry": {
        "coordinates": [
          [
            [
              -83.864772755177839,
              42.479392027289471
            ],
            [
              -83.864558518660672,
              42.47900306251708
            ],
            [
              -83.864011148208604,
              42.478840056770331
            ],
            [
              -83.863485680479783,
              42.47899863615492
            ],
            [
              -83.863265462979456,
              42.479403814283863
            ],
            [
              -83.863479693208419,
              42.479792781865221
            ],
            [
              -83.864027070847015,
              42.479955790430225
            ],
            [
              -83.86455254486404,
              42.479797208171206
            ],
            [
              -83.864772755177839,
              42.479392027289471
            ]
          ]
        ],
        "type": "Polygon"
      },
      "id": 19,
      "properties": {
        "ADD_DTTM": null,
        "CAUSE": null,
        "CIRCUIT_EST_DTTM": null,
        "CIRCUIT_EST_ENDDTTM": null,
        "CREW_STATUS": null,
        "DEV_ID": null,
        "DEV_NAME": null,
        "DEV_TYPE": null,
        "DEV_TYPE_NAME": null,
        "DISPATCH_DTTM": null,
        "EST_REP_DTTM": null,
        "EST_REP_ENDDTTM": null,
        "EVENT_STATUS": null,
        "JOB_ID": "NW25090600015",
        "NUM_CUST": null,
        "NUM_CUST_RESTORED": null,
        "OBJECTID": 19,
        "OFF_DTTM": null,
        "SERVICE_CENTER": null,
        "SHAPE_Area": 20111.315406833241,
        "SHAPE_Length": 516.34316021541144,
        "STORM_MODE": null,
        "TOAL_CUST_AFFECTED": null,
        "TYCOD": null
      },
      "type": "Feature"
    },
    {
      "geometry": {
        "coordinates": [
          [
            [
              -83.827676735688584,
              42.51570577710563
            ],
            [
              -83.827462606070952,
              42.515316743490182
            ],
            [
              -83.826915012836693,
              42.515153559569832
            ],
            [
              -83.82638914445927,
              42.515311966774263
            ],
            [
              -83.826168557751359,
              42.515717072569885
            ],
            [
              -83.826382681080787,
              42.516106108990286
            ],
            [
              -83.826930280603264,
              42.516269295720406
            ],
            [
              -83.827456156167216,
              42.516110885645517
            ],
            [
              -83.827676735688584,
              42.51570577710563
            ]
          ]
        ],
        "type": "Polygon"
      },
      "id": 20,
      "properties": {
        "ADD_DTTM": 1791654315000,
        "CAUSE": "Determined upon crew arrival",
        "CIRCUIT_EST_DTTM": null,
        "CIRCUIT_EST_ENDDTTM": null,
        "CREW_STATUS": null,
        "DEV_ID": null,
        "DEV_NAME": null,
        "DEV_TYPE": null,
        "DEV_TYPE_NAME": "Single Customer",
        "DISPATCH_DTTM": null,
        "EST_REP_DTTM": 1791661500000,
        "EST_REP_ENDDTTM": 1791661500000,
        "EVENT_STATUS": "In Progres",
        "JOB_ID": "NW26101000276",
        "NUM_CUST": 1,
        "NUM_CUST_RESTORED": 0,
        "OBJECTID": 20,
        "OFF_DTTM": 1791645367000,
        "SERVICE_CENTER": "HWL",
        "SHAPE_Area": 20134.694665686584,
        "SHAPE_Length": 516.64319609242079,
        "STORM_MODE": "NORMAL",
        "TOAL_CUST_AFFECTED": 1,
        "TYCOD": "OUTAGE"
      },
      "type": "Feature"
    },
    {
      "geometry": {
        "coordinates": [
          [
            [
              -83.652598330630198,
              42.451789067367905
            ],
            [
              -83.652385512552883,
              42.451399703707224
            ],
            [
              -83.651838940703087,
              42.451235676908183
            ],
            [
              -83.651313167547059,
              42.451393275658624
            ],
            [
              -83.651091669947462,
              42.451798042584826
            ],
            [
              -83.651304480838277,
              42.452187409071726
            ],
            [
              -83.651851059874573,
              42.452351438018006
            ],
            [
              -83.652376839318791,
              42.452193837038806
            ],
            [
              -83.652598330630198,
              42.451789067367905
            ]
          ]
        ],
        "type": "Polygon"
      },
      "id": 21,
      "properties": {
        "ADD_DTTM": 1791654315000,
        "CAUSE": "Determined upon crew arrival",
        "CIRCUIT_EST_DTTM": null,
        "CIRCUIT_EST_ENDDTTM": null,
        "CREW_STATUS": null,
        "DEV_ID": null,
        "DEV_NAME": null,
        "DEV_TYPE": null,
        "DEV_TYPE_NAME": "Single Customer",
        "DISPATCH_DTTM": null,
        "EST_REP_DTTM": 1791661800000,
        "EST_REP_ENDDTTM": 1791661800000,
        "EVENT_STATUS": "In Progres",
        "JOB_ID": "NW26101000280",
        "NUM_CUST": 1,
        "NUM_CUST_RESTORED": 0,
        "OBJECTID": 21,
        "OFF_DTTM": 1791645645000,
        "SERVICE_CENTER": "HWL",
        "SHAPE_Area": 20093.584092110475,
        "SHAPE_Length": 516.11549472799584,
        "STORM_MODE": "NORMAL",
        "TOAL_CUST_AFFECTED": 1,
        "TYCOD": "OUTAGE"
      },
      "type": "Feature"
    },
    {
      "geometry": {
        "coordinates": [
          [
            [
              -83.303141769853781,
              42.675759121041033
            ],
            [
              -83.302930377402802,
              42.675369113214451
            ],
            [
              -83.30238276171066,
              42.675203410843586
            ],
            [
              -83.301854211862107,
              42.675359389454833
            ],
            [
              -83.301629640227588,
              42.675763464772466
            ],
            [
              -83.301841026390363,
              42.676153474747245
            ],
            [
              -83.302388648370695,
              42.676319180528779
            ],
            [
              -83.302917205405777,
              42.67616319904306
            ],
            [
              -83.303141769853781,
              42.675759121041033
            ]
          ]
        ],
        "type": "Polygon"
      },
      "id": 22,
      "properties": {
        "ADD_DTTM": 1791654315000,
        "CAUSE": "Determined upon crew arrival",
        "CIRCUIT_EST_DTTM": null,
        "CIRCUIT_EST_ENDDTTM": null,
        "CREW_STATUS": null,
        "DEV_ID": null,
        "DEV_NAME": null,
        "DEV_TYPE": null,
        "DEV_TYPE_NAME": "Single Customer",
        "DISPATCH_DTTM": null,
        "EST_REP_DTTM": 1791666000000,
        "EST_REP_ENDDTTM": 1791666000000,
        "EVENT_STATUS": "PC3 Verifi",
        "JOB_ID": "NW26101000348",
        "NUM_CUST": 1,
        "NUM_CUST_RESTORED": 0,
        "OBJECTID": 22,
        "OFF_DTTM": 1791649944000,
        "SERVICE_CENTER": "PON",
        "SHAPE_Area": 20238.192354500665,
        "SHAPE_Length": 517.96931970192668,
        "STORM_MODE": "NORMAL",
        "TOAL_CUST_AFFECTED": 1,
        "TYCOD": "OUTAGE"
      },
      "type": "Feature"
    },
    {
      "geometry": {
        "coordinates": [
          [
            [
              -83.653693581777418,
              42.629045632606257
            ],
            [
              -83.653480151049067,
              42.628656275567238
            ],
            [
              -83.652932017927327,
              42.628492255719316
            ],
            [
              -83.652404749076354,
              42.628649857809705
            ],
            [
              -83.652182626249328,
              42.629054622036051
            ],
            [
              -83.652396050689461,
              42.629443981209917
            ],
            [
              -83.652944190997729,
              42.629608003176571
            ],
            [
              -83.653471467035217,
              42.629450398885574
            ],
            [
              -83.653693581777418,
              42.629045632606257
            ]
          ]
        ],
        "type": "Polygon"
      },
      "id": 23,
      "properties": {
        "ADD_DTTM": 1791654315000,
        "CAUSE": "Determined upon crew arrival",
        "CIRCUIT_EST_DTTM": null,
        "CIRCUIT_EST_ENDDTTM": null,
        "CREW_STATUS": null,
        "DEV_ID": null,
        "DEV_NAME": null,
        "DEV_TYPE": null,
        "DEV_TYPE_NAME": "Service Transformer",
        "DISPATCH_DTTM": null,
        "EST_REP_DTTM": 1791669000000,
        "EST_REP_ENDDTTM": 1791669000000,
        "EVENT_STATUS": "In Progres",
        "JOB_ID": "NW26101000385",
        "NUM_CUST": 2,
        "NUM_CUST_RESTORED": 0,
        "OBJECTID": 23,
        "OFF_DTTM": 1791652882000,
        "SERVICE_CENTER": "PON",
        "SHAPE_Area": 20207.904152932893,
        "SHAPE_Length": 517.58158685593685,
        "STORM_MODE": "NORMAL",
        "TOAL_CUST_AFFECTED": 2,
        "TYCOD": "OUTAGE"
      },
      "type": "Feature"
    },
    {
      "geometry": {
        "coordinates": [
          [
            [
              -83.194772035011908,
              42.230378809008094
            ],
            [
              -83.194562822772113,
              42.229988593334149
            ],
            [
              -83.194019392330873,
              42.22982236759281
            ],
            [
              -83.193494335132144,
              42.229977847005522
            ],
            [
              -83.193270662711228,
              42.230381717070344
            ],
            [
              -83.193479868662806,
              42.230771934970043
            ],
            [
              -83.194023305392264,
              42.230938163532024
            ],
            [
              -83.194548369777507,
              42.230782681828664
            ],
            [
              -83.194772035011908,
              42.230378809008094
            ]
          ]
        ],
        "type": "Polygon"
      },
      "id": 24,
      "properties": {
        "ADD_DTTM": null,
        "CAUSE": null,
        "CIRCUIT_EST_DTTM": null,
        "CIRCUIT_EST_ENDDTTM": null,
        "CREW_STATUS": null,
        "DEV_ID": null,
        "DEV_NAME": null,
        "DEV_TYPE": null,
        "DEV_TYPE_NAME": null,
        "DISPATCH_DTTM": null,
        "EST_REP_DTTM": null,
        "EST_REP_ENDDTTM": null,
        "EVENT_STATUS": null,
        "JOB_ID": "SE24120700174",
        "NUM_CUST": null,
        "NUM_CUST_RESTORED": null,
        "OBJECTID": 24,
        "OFF_DTTM": null,
        "SERVICE_CENTER": null,
        "SHAPE_Area": 19952.137928119042,
        "SHAPE_Length": 514.29574246657512,
        "STORM_MODE": null,
        "TOAL_CUST_AFFECTED": null,
        "TYCOD": null
      },
      "type": "Feature"
    },
    {
      "geometry": {
        "coordinates": [
          [
            [
              -83.299473870395275,
              42.407417850869813
            ],
            [
              -83.299263409497257,
              42.407027828770559
            ],
            [
              -83.298718159069267,
              42.40686210519155
            ],
            [
              -83.298191872975224,
              42.407018069763211
            ],
            [
              -83.297968244571749,
              42.407422145654877
            ],
            [
              -83.298178698283252,
              42.407812169945473
            ],
            [
              -83.29872395499946,
              42.407977896320837
            ],
            [
              -83.299250248280018,
              42.407821928829279
            ],
            [
              -83.299473870395275,
              42.407417850869813
            ]
          ]
        ],
        "type": "Polygon"
      },
      "id": 25,
      "properties": {
        "ADD_DTTM": null,
        "CAUSE": null,
        "CIRCUIT_EST_DTTM": null,
        "CIRCUIT_EST_ENDDTTM": null,
        "CREW_STATUS": null,
        "DEV_ID": null,
        "DEV_NAME": null,
        "DEV_TYPE": null,
        "DEV_TYPE_NAME": null,
        "DISPATCH_DTTM": null,
        "EST_REP_DTTM": null,
        "EST_REP_ENDDTTM": null,
        "EVENT_STATUS": null,
        "JOB_ID": "SE25071900674",
        "NUM_CUST": null,
        "NUM_CUST_RESTORED": null,
        "OBJECTID": 25,
        "OFF_DTTM": null,
        "SERVICE_CENTER": null,
        "SHAPE_Area": 20065.10654557851,
        "SHAPE_Length": 515.7496362312055,
        "STORM_MODE": null,
        "TOAL_CUST_AFFECTED": null,
        "TYCOD": null
      },
      "type": "Feature"
    },
    {
      "geometry": {
        "coordinates": [
          [
            [
              -83.24621543148443,
              42.299221308030681
            ],
            [
              -83.246005667679071,
              42.298831187333555
            ],
            [
              -83.245461502415921,
              42.298665208116937
            ],
            [
              -83.244935995161242,
              42.298820925810162
            ],
            [
              -83.244712408080304,
              42.29922489794663
            ],
            [
              -83.244922165597444,
              42.299615021519912
            ],
            [
              -83.245466338047109,
              42.29978100288394
            ],
            [
              -83.245991852488316,
              42.299625282249501
            ],
            [
              -83.24621543148443,
              42.299221308030681
            ]
          ]
        ],
        "type": "Polygon"
      },
      "id": 26,
      "properties": {
        "ADD_DTTM": 1791654315000,
        "CAUSE": "Determined upon crew arrival",
        "CIRCUIT_EST_DTTM": null,
        "CIRCUIT_EST_ENDDTTM": null,
        "CREW_STATUS": null,
        "DEV_ID": null,
        "DEV_NAME": null,
        "DEV_TYPE": null,
        "DEV_TYPE_NAME": "Single Customer",
        "DISPATCH_DTTM": null,
        "EST_REP_DTTM": 1791693600000,
        "EST_REP_ENDDTTM": 1791693600000,
        "EVENT_STATUS": "In Progres",
        "JOB_ID": "SE26100900927",
        "NUM_CUST": 1,
        "NUM_CUST_RESTORED": 0,
        "OBJECTID": 26,
        "OFF_DTTM": 1791579130000,
        "SERVICE_CENTER": "RFD",
        "SHAPE_Area": 19995.951424059193,
        "SHAPE_Length": 514.86010523770892,
        "STORM_MODE": "NORMAL",
        "TOAL_CUST_AFFECTED": 1,
        "TYCOD": "OUTAGE"
      },
      "type": "Feature"
    },
    {
      "geometry": {
        "coordinates": [
          [
            [
              -83.21628249003588,
              42.400167311797063
            ],
            [
              -83.216072574415207,
              42.399777135829112
            ],
            [
              -83.215527608753149,
              42.399611012985694
            ],
            [
              -83.215001176233727,
              42.399766592256036
            ],
            [
              -83.214777033993926,
              42.400170504567654
            ],
            [
              -83.214986943326352,
              42.400560682733051
            ],
            [
              -83.215531916174953,
              42.400726808369072
            ],
            [
              -83.216058355880904,
              42.400571226172694
            ],
            [
              -83.21628249003588,
              42.400167311797063
            ]
          ]
        ],
        "type": "Polygon"
      },
      "id": 27,
      "properties": {
        "ADD_DTTM": 1791654315000,
        "CAUSE": "Equipment problem",
        "CIRCUIT_EST_DTTM": null,
        "CIRCUIT_EST_ENDDTTM": null,
        "CREW_STATUS": null,
        "DEV_ID": null,
        "DEV_NAME": null,
        "DEV_TYPE": null,
        "DEV_TYPE_NAME": "Single Customer",
        "DISPATCH_DTTM": null,
        "EST_REP_DTTM": 1791692100000,
        "EST_REP_ENDDTTM": 1791692100000,
        "EVENT_STATUS": "In Progres",
        "JOB_ID": "SE26101000074",
        "NUM_CUST": 1,
        "NUM_CUST_RESTORED": 0,
        "OBJECTID": 27,
        "OFF_DTTM": 1791592899000,
        "SERVICE_CENTER": "RFD",
        "SHAPE_Area": 20060.467973615898,
        "SHAPE_Length": 515.69001960870889,
        "STORM_MODE": "NORMAL",
        "TOAL_CUST_AFFECTED": 1,
        "TYCOD": "OUTAGE"
      },
      "type": "Feature"
    },
    {
      "geometry": {
        "coordinates": [
          [
            [
              -83.047089069676289,
              42.3297992200811
            ],
            [
              -83.046880447629647,
              42.329408731693029
            ],
            [
              -83.04633654647121,
              42.329241797745247
            ],
            [
              -83.045810286428306,
              42.329396592397515
            ],
            [
              -83.04558530426371,
              42.329800170418771
            ],
            [
              -83.045793920022149,
              42.330190661025533
            ],
            [
              -83.046337827468804,
              42.330357598432073
            ],
            [
              -83.046864093799897,
              42.330202800831913
            ],
            [
              -83.047089069676289,
              42.3297992200811
            ]
          ]
        ],
        "type": "Polygon"
      },
      "id": 28,
      "properties": {
        "ADD_DTTM": 1791654315000,
        "CAUSE": "Determined upon crew arrival",
        "CIRCUIT_EST_DTTM": null,
        "CIRCUIT_EST_ENDDTTM": null,
        "CREW_STATUS": null,
        "DEV_ID": null,
        "DEV_NAME": null,
        "DEV_TYPE": null,
        "DEV_TYPE_NAME": null,
        "DISPATCH_DTTM": null,
        "EST_REP_DTTM": 1791663600000,
        "EST_REP_ENDDTTM": 1791663600000,
        "EVENT_STATUS": "In Progres",
        "JOB_ID": "SE26101000075",
        "NUM_CUST": 1,
        "NUM_CUST_RESTORED": 0,
        "OBJECTID": 28,
        "OFF_DTTM": 1791632971000,
        "SERVICE_CENTER": "CAN",
        "SHAPE_Area": 20015.459735038879,
        "SHAPE_Length": 515.11119422363652,
        "STORM_MODE": "NORMAL",
        "TOAL_CUST_AFFECTED": 1,
        "TYCOD": "PRIORITY"
      },
      "type": "Feature"
    },
    {
      "geometry": {
        "coordinates": [
          [
            [
              -83.290038429283243,
              42.370203510717921
            ],
            [
              -83.289828152539869,
              42.369813471031271
            ],
            [
              -83.289283252454823,
              42.369647702269603
            ],
            [
              -83.288757256516618,
              42.369803623276034
            ],
            [
              -83.288533699978387,
              42.370207680623274
            ],
            [
              -83.288743968636936,
              42.370597723171464
            ],
            [
              -83.289288875908511,
              42.370763494735336
            ],
            [
              -83.28981487903323,
              42.370607570802242
            ],
            [
              -83.290038429283243,
              42.370203510717921
            ]
          ]
        ],
        "type": "Polygon"
      },
      "id": 29,
      "properties": {
        "ADD_DTTM": 1791654315000,
        "CAUSE": "Equipment problem",
        "CIRCUIT_EST_DTTM": null,
        "CIRCUIT_EST_ENDDTTM": null,
        "CREW_STATUS": null,
        "DEV_ID": null,
        "DEV_NAME": null,
        "DEV_TYPE": null,
        "DEV_TYPE_NAME": "Single Customer",
        "DISPATCH_DTTM": null,
        "EST_REP_DTTM": 1791657600000,
        "EST_REP_ENDDTTM": 1791657600000,
        "EVENT_STATUS": "In Progres",
        "JOB_ID": "SE26101000172",
        "NUM_CUST": 1,
        "NUM_CUST_RESTORED": 0,
        "OBJECTID": 29,
        "OFF_DTTM": 1791549734000,
        "SERVICE_CENTER": "RFD",
        "SHAPE_Area": 20041.282607942485,
        "SHAPE_Length": 515.4433657915979,
        "STORM_MODE": "NORMAL",
        "TOAL_CUST_AFFECTED": 1,
        "TYCOD": "OUTAGE"
      },
      "type": "Feature"
    },
    {
      "geometry": {
        "coordinates": [
          [
            [
              -83.187318201059838,
              42.389752030206985
            ],
            [
              -83.187108501034871,
              42.389361800096161
            ],
            [
              -83.186563703357763,
              42.389195538879918
            ],
            [
              -83.186037286109695,
              42.389350984074021
            ],
            [
              -83.185812994749568,
              42.389754838692561
            ],
            [
              -83.186022687588007,
              42.390145071004241
            ],
            [
              -83.18656749245163,
              42.390311335013145
            ],
            [
              -83.187093915987916,
              42.390155887553028
            ],
            [
              -83.187318201059838,
              42.389752030206985
            ]
          ]
        ],
        "type": "Polygon"
      },
      "id": 30,
      "properties": {
        "ADD_DTTM": 1791654315000,
        "CAUSE": "Determined upon crew arrival",
        "CIRCUIT_EST_DTTM": null,
        "CIRCUIT_EST_ENDDTTM": null,
        "CREW_STATUS": null,
        "DEV_ID": null,
        "DEV_NAME": null,
        "DEV_TYPE": null,
        "DEV_TYPE_NAME": "Single Customer",
        "DISPATCH_DTTM": null,
        "EST_REP_DTTM": 1791661800000,
        "EST_REP_ENDDTTM": 1791661800000,
        "EVENT_STATUS": "Pending",
        "JOB_ID": "SE26101000277",
        "NUM_CUST": 1,
        "NUM_CUST_RESTORED": 0,
        "OBJECTID": 30,
        "OFF_DTTM": 1791645454000,
        "SERVICE_CENTER": "RFD",
        "SHAPE_Area": 20053.796262668173,
        "SHAPE_Length": 515.60426028748509,
        "STORM_MODE": "NORMAL",
        "TOAL_CUST_AFFECTED": 1,
        "TYCOD": "OUTAGE"
      },
      "type": "Feature"
    },
    {
      "geometry": {
        "coordinates": [
          [
            [
              -82.90601631423975,
              42.393535996604541
            ],
            [
              -82.905808361438005,
              42.393145249980286
            ],
            [
              -82.905264283311439,
              42.392977640060685
            ],
            [
              -82.904737136631354,
              42.393131780193364
            ],
            [
              -82.904511011809731,
              42.393535077748346
            ],
            [
              -82.904718957424961,
              42.393925826589609
            ],
            [
              -82.905263042738014,
              42.394093439284426
            ],
            [
              -82.905790196604642,
              42.393939296206071
            ],
            [
              -82.90601631423975,
              42.393535996604541
            ]
          ]
        ],
        "type": "Polygon"
      },
      "id": 31,
      "properties": {
        "ADD_DTTM": 1791654315000,
        "CAUSE": "Determined upon crew arrival",
        "CIRCUIT_EST_DTTM": null,
        "CIRCUIT_EST_ENDDTTM": null,
        "CREW_STATUS": null,
        "DEV_ID": null,
        "DEV_NAME": null,
        "DEV_TYPE": null,
        "DEV_TYPE_NAME": null,
        "DISPATCH_DTTM": null,
        "EST_REP_DTTM": 1791661800000,
        "EST_REP_ENDDTTM": 1791661800000,
        "EVENT_STATUS": "PC3 Verifi",
        "JOB_ID": "SE26101000282",
        "NUM_CUST": 1,
        "NUM_CUST_RESTORED": 0,
        "OBJECTID": 31,
        "OFF_DTTM": 1791645681000,
        "SERVICE_CENTER": "CAN",
        "SHAPE_Area": 20056.221169693876,
        "SHAPE_Length": 515.63543144882635,
        "STORM_MODE": "NORMAL",
        "TOAL_CUST_AFFECTED": 1,
        "TYCOD": "PRIORITY"
      },
      "type": "Feature"
    },
    {
      "geometry": {
        "coordinates": [
          [
            [
              -83.147700916893598,
              42.46966816729087
            ],
            [
              -83.147491196207355,
              42.469277865847793
            ],
            [
              -83.146945805642162,
              42.469111414912
            ],
            [
              -83.146418615842961,
              42.469266675966338
            ],
            [
              -83.146193779205447,
              42.469670451371883
            ],
            [
              -83.146403493603472,
              42.47006075500537
            ],
            [
              -83.146948890456855,
              42.470227208717652
            ],
            [
              -83.147476088340895,
              42.470071945407511
            ],
            [
              -83.147700916893598,
              42.46966816729087
            ]
          ]
        ],
        "type": "Polygon"
      },
      "id": 32,
      "properties": {
        "ADD_DTTM": 1791654315000,
        "CAUSE": "Determined upon crew arrival",
        "CIRCUIT_EST_DTTM": null,
        "CIRCUIT_EST_ENDDTTM": null,
        "CREW_STATUS": null,
        "DEV_ID": null,
        "DEV_NAME": null,
        "DEV_TYPE": null,
        "DEV_TYPE_NAME": "Single Customer",
        "DISPATCH_DTTM": null,
        "EST_REP_DTTM": 1791662100000,
        "EST_REP_ENDDTTM": 1791662100000,
        "EVENT_STATUS": "In Progres",
        "JOB_ID": "SE26101000284",
        "NUM_CUST": 1,
        "NUM_CUST_RESTORED": 0,
        "OBJECTID": 32,
        "OFF_DTTM": 1791645869000,
        "SERVICE_CENTER": "RFD",
        "SHAPE_Area": 20105.052277290484,
        "SHAPE_Length": 516.2627550531713,
        "STORM_MODE": "NORMAL",
        "TOAL_CUST_AFFECTED": 1,
        "TYCOD": "OUTAGE"
      },
      "type": "Feature"
    },
    {
      "geometry": {
        "coordinates": [
          [
            [
              -83.212869957358137,
              42.347919393380337
            ],
            [
              -83.21266023846853,
              42.347529210701012
            ],
            [
              -83.212115738133804,
              42.347363071098954
            ],
            [
              -83.211589736805692,
              42.347518635115783
            ],
            [
              -83.211365760754234,
              42.34792254034236
            ],
            [
              -83.211575473355609,
              42.348312725891581
            ],
            [
              -83.212119980876892,
              42.348478867631165
            ],
            [
              -83.212645988493193,
              42.348323301343214
            ],
            [
              -83.212869957358137,
              42.347919393380337
            ]
          ]
        ],
        "type": "Polygon"
      },
      "id": 33,
      "properties": {
        "ADD_DTTM": 1791654315000,
        "CAUSE": "Public Interference w/DTE equip",
        "CIRCUIT_EST_DTTM": null,
        "CIRCUIT_EST_ENDDTTM": null,
        "CREW_STATUS": null,
        "DEV_ID": null,
        "DEV_NAME": null,
        "DEV_TYPE": null,
        "DEV_TYPE_NAME": "Service Transformer",
        "DISPATCH_DTTM": null,
        "EST_REP_DTTM": 1791663000000,
        "EST_REP_ENDDTTM": 1791663000000,
        "EVENT_STATUS": "In Progres",
        "JOB_ID": "SE26101000297",
        "NUM_CUST": 11,
        "NUM_CUST_RESTORED": 0,
        "OBJECTID": 33,
        "OFF_DTTM": 1791646856000,
        "SERVICE_CENTER": "RFD",
        "SHAPE_Area": 20027.034509055753,
        "SHAPE_Length": 515.26011007823865,
        "STORM_MODE": "NORMAL",
        "TOAL_CUST_AFFECTED": 11,
        "TYCOD": "OUTAGE"
      },
      "type": "Feature"
    },
    {
      "geometry": {
        "coordinates": [
          [
            [
              -83.01510220938232,
              42.362947438232126
            ],
            [
              -83.014893676268898,
              42.362556890849838
            ],
            [
              -83.014349572091206,
              42.36238980329054
            ],
            [
              -83.013822953620505,
              42.362544449968112
            ],
            [
              -83.013597644469158,
              42.362947964591676
            ],
            [
              -83.013806171294362,
              42.363338513525555
            ],
            [
              -83.014350281760272,
              42.363505603871857
            ],
            [
              -83.014876907417488,
              42.363350954913756
            ],
            [
              -83.01510220938232,
              42.362947438232126
            ]
          ]
        ],
        "type": "Polygon"
      },
      "id": 34,
      "properties": {
        "ADD_DTTM": 1791654315000,
        "CAUSE": "Equipment problem",
        "CIRCUIT_EST_DTTM": null,
        "CIRCUIT_EST_ENDDTTM": null,
        "CREW_STATUS": null,
        "DEV_ID": null,
        "DEV_NAME": null,
        "DEV_TYPE": null,
        "DEV_TYPE_NAME": "Single Customer",
        "DISPATCH_DTTM": null,
        "EST_REP_DTTM": 1791663900000,
        "EST_REP_ENDDTTM": 1791663900000,
        "EVENT_STATUS": "In Progres",
        "JOB_ID": "SE26101000316",
        "NUM_CUST": 1,
        "NUM_CUST_RESTORED": 0,
        "OBJECTID": 34,
        "OFF_DTTM": 1791646630000,
        "SERVICE_CENTER": "CAN",
        "SHAPE_Area": 20036.645287012747,
        "SHAPE_Length": 515.38372896751457,
        "STORM_MODE": "NORMAL",
        "TOAL_CUST_AFFECTED": 1,
        "TYCOD": "OUTAGE"
      },
      "type": "Feature"
    },
    {
      "geometry": {
        "coordinates": [
          [
            [
              -83.127417912687321,
              42.454846457183237
            ],
            [
              -83.127208368969193,
              42.454456117682248
            ],
            [
              -83.126663162558643,
              42.454289569675424
            ],
            [
              -83.126136046421266,
              42.454444736256384
            ],
            [
              -83.125911132528643,
              42.454848472051381
            ],
            [
              -83.126120669958553,
              42.455238813746405
            ],
            [
              -83.126665883555631,
              42.455405364531067
            ],
            [
              -83.127193005981198,
              42.455250195690709
            ],
            [
              -83.127417912687321,
              42.454846457183237
            ]
          ]
        ],
        "type": "Polygon"
      },
      "id": 35,
      "properties": {
        "ADD_DTTM": 1791654315000,
        "CAUSE": "Determined upon crew arrival",
        "CIRCUIT_EST_DTTM": null,
        "CIRCUIT_EST_ENDDTTM": null,
        "CREW_STATUS": null,
        "DEV_ID": null,
        "DEV_NAME": null,
        "DEV_TYPE": null,
        "DEV_TYPE_NAME": "Single Customer",
        "DISPATCH_DTTM": null,
        "EST_REP_DTTM": 1791665400000,
        "EST_REP_ENDDTTM": 1791665400000,
        "EVENT_STATUS": "In Progres",
        "JOB_ID": "SE26101000337",
        "NUM_CUST": 1,
        "NUM_CUST_RESTORED": 0,
        "OBJECTID": 35,
        "OFF_DTTM": 1791639886000,
        "SERVICE_CENTER": "RFD",
        "SHAPE_Area": 20095.53861331028,
        "SHAPE_Length": 516.14059810494564,
        "STORM_MODE": "NORMAL",
        "TOAL_CUST_AFFECTED": 1,
        "TYCOD": "OUTAGE"
      },
      "type": "Feature"
    },
    {
      "geometry": {
        "coordinates": [
          [
            [
              -83.234944712484008,
              42.365229781355254
            ],
            [
              -83.234734797761689,
              42.364839639765492
            ],
            [
              -83.234190087221165,
              42.364673606321027
            ],
            [
              -83.233663995163255,
              42.364829272187777
            ],
            [
              -83.233440099960134,
              42.365233221484317
            ],
            [
              -83.233650008394264,
              42.365623365939719
            ],
            [
              -83.234194726121302,
              42.365789401520203
            ],
            [
              -83.234720824467459,
              42.365633733386339
            ],
            [
              -83.234944712484008,
              42.365229781355254
            ]
          ]
        ],
        "type": "Polygon"
      },
      "id": 36,
      "properties": {
        "ADD_DTTM": 1791654315000,
        "CAUSE": "Determined upon crew arrival",
        "CIRCUIT_EST_DTTM": null,
        "CIRCUIT_EST_ENDDTTM": null,
        "CREW_STATUS": null,
        "DEV_ID": null,
        "DEV_NAME": null,
        "DEV_TYPE": null,
        "DEV_TYPE_NAME": "Single Customer",
        "DISPATCH_DTTM": null,
        "EST_REP_DTTM": 1791666000000,
        "EST_REP_ENDDTTM": 1791666000000,
        "EVENT_STATUS": "PC3 Verifi",
        "JOB_ID": "SE26101000345",
        "NUM_CUST": 1,
        "NUM_CUST_RESTORED": 0,
        "OBJECTID": 36,
        "OFF_DTTM": 1791649630000,
        "SERVICE_CENTER": "RFD",
        "SHAPE_Area": 20038.108883465495,
        "SHAPE_Length": 515.40255528496607,
        "STORM_MODE": "NORMAL",
        "TOAL_CUST_AFFECTED": 1,
        "TYCOD": "OUTAGE"
      },
      "type": "Feature"
    },
    {
      "geometry": {
        "coordinates": [
          [
            [
              -83.097221371398405,
              42.511268259693935
            ],
            [
              -83.097011826781966,
              42.510877866124368
            ],
            [
              -83.096466207146378,
              42.510711172904884
            ],
            [
              -83.095938539443424,
              42.510866199619876
            ],
            [
              -83.095713225800509,
              42.511269874108564
            ],
            [
              -83.095922763230419,
              42.511660269864969
            ],
            [
              -83.096468390052522,
              42.511826965850659
            ],
            [
              -83.09699606494199,
              42.511671936883388
            ],
            [
              -83.097221371398405,
              42.511268259693935
            ]
          ]
        ],
        "type": "Polygon"
      },
      "id": 37,
      "properties": {
        "ADD_DTTM": 1791654315000,
        "CAUSE": "Determined upon crew arrival",
        "CIRCUIT_EST_DTTM": null,
        "CIRCUIT_EST_ENDDTTM": null,
        "CREW_STATUS": null,
        "DEV_ID": null,
        "DEV_NAME": null,
        "DEV_TYPE": null,
        "DEV_TYPE_NAME": "Single Customer",
        "DISPATCH_DTTM": null,
        "EST_REP_DTTM": null,
        "EST_REP_ENDDTTM": null,
        "EVENT_STATUS": "New",
        "JOB_ID": "SE26101000395",
        "NUM_CUST": 1,
        "NUM_CUST_RESTORED": 0,
        "OBJECTID": 37,
        "OFF_DTTM": 1791654217000,
        "SERVICE_CENTER": "RFD",
        "SHAPE_Area": 20131.819147399146,
        "SHAPE_Length": 516.60630009049873,
        "STORM_MODE": "NORMAL",
        "TOAL_CUST_AFFECTED": 1,
        "TYCOD": "OUTAGE"
      },
      "type": "Feature"
    },
    {
      "geometry": {
        "coordinates": [
          [
            [
              -83.121812419026199,
              42.479165350321203
            ],
            [
              -83.121602828595698,
              42.478775001434897
            ],
            [
              -83.121057424555772,
              42.478608426023278
            ],
            [
              -83.12053008922949,
              42.47876356678934
            ],
            [
              -83.120305050471032,
              42.479167290866087
            ],
            [
              -83.120514634613343,
              42.479557642605378
            ],
            [
              -83.121060045839783,
              42.479724220127757
            ],
            [
              -83.12158738835258,
              42.479569077105879
            ],
            [
              -83.121812419026199,
              42.479165350321203
            ]
          ]
        ],
        "type": "Polygon"
      },
      "id": 38,
      "properties": {
        "ADD_DTTM": 1791654315000,
        "CAUSE": "Determined upon crew arrival",
        "CIRCUIT_EST_DTTM": null,
        "CIRCUIT_EST_ENDDTTM": null,
        "CREW_STATUS": null,
        "DEV_ID": null,
        "DEV_NAME": null,
        "DEV_TYPE": null,
        "DEV_TYPE_NAME": "Single Customer",
        "DISPATCH_DTTM": null,
        "EST_REP_DTTM": null,
        "EST_REP_ENDDTTM": null,
        "EVENT_STATUS": "New",
        "JOB_ID": "SE26101000396",
        "NUM_CUST": 1,
        "NUM_CUST_RESTORED": 0,
        "OBJECTID": 38,
        "OFF_DTTM": 1791654223000,
        "SERVICE_CENTER": "RFD",
        "SHAPE_Area": 20111.168120898732,
        "SHAPE_Length": 516.34127091373523,
        "STORM_MODE": "NORMAL",
        "TOAL_CUST_AFFECTED": 1,
        "TYCOD": "OUTAGE"
      },
      "type": "Feature"
    },
    {
      "geometry": {
        "coordinates": [
          [
            [
              -83.703959673188052,
              42.207881443006293
            ],
            [
              -83.703747365353806,
              42.207492174877594
            ],
            [
              -83.703202788662267,
              42.207328394468547
            ],
            [
              -83.702679193920829,
              42.207486230884321
            ],
            [
              -83.702458891978864,
              42.207891098524556
            ],
            [
              -83.702671192626596,
              42.208280368852797
            ],
            [
              -83.703215776504635,
              42.208444152116812
            ],
            [
              -83.703739377534291,
              42.208286312771349
            ],
            [
              -83.703959673188052,
              42.207881443006293
            ]
          ]
        ],
        "type": "Polygon"
      },
      "id": 39,
      "properties": {
        "ADD_DTTM": null,
        "CAUSE": null,
        "CIRCUIT_EST_DTTM": null,
        "CIRCUIT_EST_ENDDTTM": null,
        "CREW_STATUS": null,
        "DEV_ID": null,
        "DEV_NAME": null,
        "DEV_TYPE": null,
        "DEV_TYPE_NAME": null,
        "DISPATCH_DTTM": null,
        "EST_REP_DTTM": null,
        "EST_REP_ENDDTTM": null,
        "EVENT_STATUS": null,
        "JOB_ID": "SW25042902955",
        "NUM_CUST": null,
        "NUM_CUST_RESTORED": null,
        "OBJECTID": 39,
        "OFF_DTTM": null,
        "SERVICE_CENTER": null,
        "SHAPE_Area": 19937.847992889809,
        "SHAPE_Length": 514.11153716572937,
        "STORM_MODE": null,
        "TOAL_CUST_AFFECTED": null,
        "TYCOD": null
      },
      "type": "Feature"
    },
    {
      "geometry": {
        "coordinates": [
          [
            [
              -83.813425887174162,
              42.281451190128685
            ],
            [
              -83.813212647786955,
              42.28106212643273
            ],
            [
              -83.812667144034052,
              42.280898872531907
            ],
            [
              -83.812143209729413,
              42.281057215542667
            ],
            [
              -83.811923357843412,
              42.281462296552569
            ],
            [
              -83.812136590044091,
              42.281851361765263
            ],
            [
              -83.812682100085212,
              42.282014618515092
            ],
            [
              -83.813206040678025,
              42.281856273257993
            ],
            [
              -83.813425887174162,
              42.281451190128685
            ]
          ]
        ],
        "type": "Polygon"
      },
      "id": 40,
      "properties": {
        "ADD_DTTM": null,
        "CAUSE": null,
        "CIRCUIT_EST_DTTM": null,
        "CIRCUIT_EST_ENDDTTM": null,
        "CREW_STATUS": null,
        "DEV_ID": null,
        "DEV_NAME": null,
        "DEV_TYPE": null,
        "DEV_TYPE_NAME": null,
        "DISPATCH_DTTM": null,
        "EST_REP_DTTM": null,
        "EST_REP_ENDDTTM": null,
        "EVENT_STATUS": null,
        "JOB_ID": "SW26052900076",
        "NUM_CUST": null,
        "NUM_CUST_RESTORED": null,
        "OBJECTID": 40,
        "OFF_DTTM": null,
        "SERVICE_CENTER": null,
        "SHAPE_Area": 19984.635500216755,
        "SHAPE_Length": 514.7144011171905,
        "STORM_MODE": null,
        "TOAL_CUST_AFFECTED": null,
        "TYCOD": null
      },
      "type": "Feature"
    },
    {
      "geometry": {
        "coordinates": [
          [
            [
              -83.415504766763533,
              42.199906387241754
            ],
            [
              -83.415294280712672,
              42.199516580845014
            ],
            [
              -83.414750531369506,
              42.199351414854426
            ],
            [
              -83.414226279061282,
              42.199507916279423
            ],
            [
              -83.414004140962874,
              42.19991222081358
            ],
            [
              -83.414214619827206,
              42.200302029428002
            ],
            [
              -83.414758376356886,
              42.200467198257599
            ],
            [
              -83.415282634953329,
              42.20031069388471
            ],
            [
              -83.415504766763533,
              42.199906387241754
            ]
          ]
        ],
        "type": "Polygon"
      },
      "id": 41,
      "properties": {
        "ADD_DTTM": null,
        "CAUSE": null,
        "CIRCUIT_EST_DTTM": null,
        "CIRCUIT_EST_ENDDTTM": null,
        "CREW_STATUS": null,
        "DEV_ID": null,
        "DEV_NAME": null,
        "DEV_TYPE": null,
        "DEV_TYPE_NAME": null,
        "DISPATCH_DTTM": null,
        "EST_REP_DTTM": null,
        "EST_REP_ENDDTTM": null,
        "EVENT_STATUS": null,
        "JOB_ID": "SW26080602425",
        "NUM_CUST": null,
        "NUM_CUST_RESTORED": null,
        "OBJECTID": 41,
        "OFF_DTTM": null,
        "SERVICE_CENTER": null,
        "SHAPE_Area": 19932.786764004613,
        "SHAPE_Length": 514.04628245151275,
        "STORM_MODE": null,
        "TOAL_CUST_AFFECTED": null,
        "TYCOD": null
      },
      "type": "Feature"
    },
    {
      "geometry": {
        "coordinates": [
          [
            [
              -83.734354916427918,
              42.265117259606662
            ],
            [
              -83.734142225013045,
              42.26472804786755
            ],
            [
              -83.733597070704775,
              42.26456441393627
            ],
            [
              -83.733073073518085,
              42.264722391135336
            ],
            [
              -83.732852766186241,
              42.265127318541403
            ],
            [
              -83.733065450414585,
              42.265516532469057
            ],
            [
              -83.733610612807695,
              42.265680169247368
            ],
            [
              -83.734134616282589,
              42.265522189130017
            ],
            [
              -83.734354916427918,
              42.265117259606662
            ]
          ]
        ],
        "type": "Polygon"
      },
      "id": 42,
      "properties": {
        "ADD_DTTM": 1791654315000,
        "CAUSE": "Determined upon crew arrival",
        "CIRCUIT_EST_DTTM": null,
        "CIRCUIT_EST_ENDDTTM": null,
        "CREW_STATUS": null,
        "DEV_ID": null,
        "DEV_NAME": null,
        "DEV_TYPE": null,
        "DEV_TYPE_NAME": "Service Transformer",
        "DISPATCH_DTTM": null,
        "EST_REP_DTTM": 1791655200000,
        "EST_REP_ENDDTTM": 1791655200000,
        "EVENT_STATUS": "In Progres",
        "JOB_ID": "SW26101000128",
        "NUM_CUST": 17,
        "NUM_CUST_RESTORED": 0,
        "OBJECTID": 42,
        "OFF_DTTM": 1791638703000,
        "SERVICE_CENTER": "ANN",
        "SHAPE_Area": 19974.232592797827,
        "SHAPE_Length": 514.58042082168618,
        "STORM_MODE": "NORMAL",
        "TOAL_CUST_AFFECTED": 17,
        "TYCOD": "OUTAGE"
      },
      "type": "Feature"
    },
    {
      "geometry": {
        "coordinates": [
          [
            [
              -83.736903584212669,
              42.116038983478333
            ],
            [
              -83.736691382379632,
              42.115649778287398
            ],
            [
              -83.736147518052121,
              42.115486157130874
            ],
            [
              -83.735624773116925,
              42.115644145514707
            ],
            [
              -83.735405006570872,
              42.116049075493997
            ],
            [
              -83.735617201217394,
              42.116438282897249
            ],
            [
              -83.736161072731434,
              42.116601906260101
            ],
            [
              -83.736683823954834,
              42.116443915599362
            ],
            [
              -83.736903584212669,
              42.116038983478333
            ]
          ]
        ],
        "type": "Polygon"
      },
      "id": 43,
      "properties": {
        "ADD_DTTM": 1791654315000,
        "CAUSE": "Public Interference w/DTE equip",
        "CIRCUIT_EST_DTTM": null,
        "CIRCUIT_EST_ENDDTTM": null,
        "CREW_STATUS": null,
        "DEV_ID": null,
        "DEV_NAME": null,
        "DEV_TYPE": null,
        "DEV_TYPE_NAME": "Device (II)",
        "DISPATCH_DTTM": null,
        "EST_REP_DTTM": 1791656100000,
        "EST_REP_ENDDTTM": 1791656100000,
        "EVENT_STATUS": "In Progres",
        "JOB_ID": "SW26101000150",
        "NUM_CUST": 1,
        "NUM_CUST_RESTORED": 16,
        "OBJECTID": 43,
        "OFF_DTTM": 1791639726000,
        "SERVICE_CENTER": "ANN",
        "SHAPE_Area": 19879.683703611354,
        "SHAPE_Length": 513.36109194037931,
        "STORM_MODE": "NORMAL",
        "TOAL_CUST_AFFECTED": 17,
        "TYCOD": "OUTAGE"
      },
      "type": "Feature"
    },
    {
      "geometry": {
        "coordinates": [
          [
            [
              -83.584306751627935,
              42.202293202139856
            ],
            [
              -83.584095207361685,
              42.201903709922682
            ],
            [
              -83.583550992691201,
              42.201739354710227
            ],
            [
              -83.583027143726525,
              42.201896638120957
            ],
            [
              -83.582806087199714,
              42.202301272075026
            ],
            [
              -83.58301762517776,
              42.202690766499622
            ],
            [
              -83.583561846136476,
              42.202855124560791
            ],
            [
              -83.584085702287652,
              42.202697838877924
            ],
            [
              -83.584306751627935,
              42.202293202139856
            ]
          ]
        ],
        "type": "Polygon"
      },
      "id": 44,
      "properties": {
        "ADD_DTTM": 1791654315000,
        "CAUSE": "Determined upon crew arrival",
        "CIRCUIT_EST_DTTM": null,
        "CIRCUIT_EST_ENDDTTM": null,
        "CREW_STATUS": null,
        "DEV_ID": null,
        "DEV_NAME": null,
        "DEV_TYPE": null,
        "DEV_TYPE_NAME": "Single Customer",
        "DISPATCH_DTTM": null,
        "EST_REP_DTTM": 1791663600000,
        "EST_REP_ENDDTTM": 1791663600000,
        "EVENT_STATUS": "In Progres",
        "JOB_ID": "SW26101000313",
        "NUM_CUST": 1,
        "NUM_CUST_RESTORED": 0,
        "OBJECTID": 44,
        "OFF_DTTM": 1791647545000,
        "SERVICE_CENTER": "ANN",
        "SHAPE_Area": 19934.302577738381,
        "SHAPE_Length": 514.06582452101634,
        "STORM_MODE": "NORMAL",
        "TOAL_CUST_AFFECTED": 1,
        "TYCOD": "OUTAGE"
      },
      "type": "Feature"
    },
    {
      "geometry": {
        "coordinates": [
          [
            [
              -83.34422958895361,
              42.381975906076072
            ],
            [
              -83.344018934917798,
              42.381585966705131
            ],
            [
              -83.343473787796057,
              42.381420457944259
            ],
            [
              -83.342947828688764,
              42.381576629746618
            ],
            [
              -83.342724580272673,
              42.38198079449468
            ],
            [
              -83.342935228020281,
              42.382370736058427
            ],
            [
              -83.34348038143024,
              42.382536246959162
            ],
            [
              -83.344006347724047,
              42.38238007289884
            ],
            [
              -83.34422958895361,
              42.381975906076072
            ]
          ]
        ],
        "type": "Polygon"
      },
      "id": 45,
      "properties": {
        "ADD_DTTM": 1791654315000,
        "CAUSE": "Determined upon crew arrival",
        "CIRCUIT_EST_DTTM": null,
        "CIRCUIT_EST_ENDDTTM": null,
        "CREW_STATUS": null,
        "DEV_ID": null,
        "DEV_NAME": null,
        "DEV_TYPE": null,
        "DEV_TYPE_NAME": "Single Customer",
        "DISPATCH_DTTM": null,
        "EST_REP_DTTM": 1791663900000,
        "EST_REP_ENDDTTM": 1791663900000,
        "EVENT_STATUS": "In Progres",
        "JOB_ID": "SW26101000317",
        "NUM_CUST": 1,
        "NUM_CUST_RESTORED": 0,
        "OBJECTID": 45,
        "OFF_DTTM": 1791647767000,
        "SERVICE_CENTER": "WWS",
        "SHAPE_Area": 20048.810392055831,
        "SHAPE_Length": 515.54016263818596,
        "STORM_MODE": "NORMAL",
        "TOAL_CUST_AFFECTED": 1,
        "TYCOD": "OUTAGE"
      },
      "type": "Feature"
    },
    {
      "geometry": {
        "coordinates": [
          [
            [
              -83.377763161317247,
              41.917219362597606
            ],
            [
              -83.377553856550989,
              41.916829494223791
            ],
            [
              -83.377012650338401,
              41.916664150180445
            ],
            [
              -83.376490660886361,
              41.916820474156246
            ],
            [
              -83.37626927827111,
              41.917224695460476
            ],
            [
              -83.376478577647475,
              41.91761456609909
            ],
            [
              -83.377019790148282,
              41.917779913027587
            ],
            [
              -83.377541785888539,
              41.917623586722847
            ],
            [
              -83.377763161317247,
              41.917219362597606
            ]
          ]
        ],
        "type": "Polygon"
      },
      "id": 46,
      "properties": {
        "ADD_DTTM": 1791654315000,
        "CAUSE": "Determined upon crew arrival",
        "CIRCUIT_EST_DTTM": null,
        "CIRCUIT_EST_ENDDTTM": null,
        "CREW_STATUS": null,
        "DEV_ID": null,
        "DEV_NAME": null,
        "DEV_TYPE": null,
        "DEV_TYPE_NAME": "Single Customer",
        "DISPATCH_DTTM": null,
        "EST_REP_DTTM": 1791665100000,
        "EST_REP_ENDDTTM": 1791665100000,
        "EVENT_STATUS": "In Progres",
        "JOB_ID": "SW26101000331",
        "NUM_CUST": 1,
        "NUM_CUST_RESTORED": 0,
        "OBJECTID": 46,
        "OFF_DTTM": 1791648368000,
        "SERVICE_CENTER": "NPT",
        "SHAPE_Area": 19754.627783924196,
        "SHAPE_Length": 511.74387855357639,
        "STORM_MODE": "NORMAL",
        "TOAL_CUST_AFFECTED": 1,
        "TYCOD": "OUTAGE"
      },
      "type": "Feature"
    },
    {
      "geometry": {
        "coordinates": [
          [
            [
              -83.398262711609291,
              41.902325458575554
            ],
            [
              -83.398053327791288,
              41.901935628937863
            ],
            [
              -83.397512196138848,
              41.901770383377617
            ],
            [
              -83.396990381858302,
              41.90192680199857
            ],
            [
              -83.396769183397694,
              41.902331063466598
            ],
            [
              -83.396978560029169,
              41.902720895370308
            ],
            [
              -83.397519697969798,
              41.902886143150859
            ],
            [
              -83.398041519436873,
              41.90272972219978
            ],
            [
              -83.398262711609291,
              41.902325458575554
            ]
          ]
        ],
        "type": "Polygon"
      },
      "id": 47,
      "properties": {
        "ADD_DTTM": 1791654315000,
        "CAUSE": "Determined upon crew arrival",
        "CIRCUIT_EST_DTTM": null,
        "CIRCUIT_EST_ENDDTTM": null,
        "CREW_STATUS": null,
        "DEV_ID": null,
        "DEV_NAME": null,
        "DEV_TYPE": null,
        "DEV_TYPE_NAME": "Service Transformer",
        "DISPATCH_DTTM": null,
        "EST_REP_DTTM": 1791668100000,
        "EST_REP_ENDDTTM": 1791668100000,
        "EVENT_STATUS": "In Progres",
        "JOB_ID": "SW26101000372",
        "NUM_CUST": 5,
        "NUM_CUST_RESTORED": 0,
        "OBJECTID": 47,
        "OFF_DTTM": 1791652014000,
        "SERVICE_CENTER": "NPT",
        "SHAPE_Area": 19745.314300786424,
        "SHAPE_Length": 511.62323067153761,
        "STORM_MODE": "NORMAL",
        "TOAL_CUST_AFFECTED": 5,
        "TYCOD": "OUTAGE"
      },
      "type": "Feature"
    },
    {
      "geometry": {
        "coordinates": [
          [
            [
              -83.397613005978371,
              41.904515448554271
            ],
            [
              -83.397403620363733,
              41.904125617578337
            ],
            [
              -83.396862470745006,
              41.903960368994092
            ],
            [
              -83.396340636701495,
              41.90411678425599
            ],
            [
              -83.396119426562791,
              41.904521043893013
            ],
            [
              -83.396328805889212,
              41.904910877803204
            ],
            [
              -83.396869961796142,
              41.905076128607362
            ],
            [
              -83.397391803026153,
              41.904919710347102
            ],
            [
              -83.397613005978371,
              41.904515448554271
            ]
          ]
        ],
        "type": "Polygon"
      },
      "id": 48,
      "properties": {
        "ADD_DTTM": 1791654315000,
        "CAUSE": "Determined upon crew arrival",
        "CIRCUIT_EST_DTTM": null,
        "CIRCUIT_EST_ENDDTTM": null,
        "CREW_STATUS": null,
        "DEV_ID": null,
        "DEV_NAME": null,
        "DEV_TYPE": null,
        "DEV_TYPE_NAME": "Single Customer",
        "DISPATCH_DTTM": null,
        "EST_REP_DTTM": 1791669000000,
        "EST_REP_ENDDTTM": 1791669000000,
        "EVENT_STATUS": "In Progres",
        "JOB_ID": "SW26101000384",
        "NUM_CUST": 1,
        "NUM_CUST_RESTORED": 0,
        "OBJECTID": 48,
        "OFF_DTTM": 1791652802000,
        "SERVICE_CENTER": "NPT",
        "SHAPE_Area": 19746.67806867286,
        "SHAPE_Length": 511.64090228973646,
        "STORM_MODE": "NORMAL",
        "TOAL_CUST_AFFECTED": 1,
        "TYCOD": "OUTAGE"
      },
      "type": "Feature"
    }
  ],
  "type": "FeatureCollection"
}
